{
  "type": "FeatureCollection",
  "features": [
    {
      "type": "Feature",
      "properties": {
        "norad_id": 34571,
        "name": "COSMOS 2251 DEB",
        "group": "cosmos-2251-debris",
        "lat": -37.06048441190216,
        "lon": 1.5656723573247757,
        "alt_km": 690.5474113370519,
        "timestamp": "2025-12-19T20:43:00.480484+00:00",
        "meta_object_name": "COSMOS 2251 DEB",
        "meta_object_id": "1993-036VH",
        "meta_epoch": "2025-12-18T22:10:04.528128",
        "meta_mean_motion": 14.48905766,
        "meta_eccentricity": 0.0065409,
        "meta_inclination": 74.0384,
        "meta_ra_of_asc_node": 170.8432,
        "meta_arg_of_pericenter": 204.4185,
        "meta_mean_anomaly": 155.3874,
        "meta_ephemeris_type": 0,
        "meta_classification_type": "U",
        "meta_norad_cat_id": 34571,
        "meta_element_set_no": 999,
        "meta_rev_at_epoch": 87383,
        "meta_bstar": 0.0018317465,
        "meta_mean_motion_dot": 7.102e-05,
        "meta_mean_motion_ddot": 0,
        "tle_line1": "1 34571U 93036VH  25352.92366352  .00007102  00000+0  18317-2 0  9995",
        "tle_line2": "2 34571  74.0384 170.8432 0065409 204.4185 155.3874 14.48905766873833"
      },
      "geometry": {
        "type": "Point",
        "coordinates": [
          1.5656723573247757,
          -37.06048441190216
        ]
      }
    },
    {
      "type": "Feature",
      "properties": {
        "norad_id": 34572,
        "name": "COSMOS 2251 DEB",
        "group": "cosmos-2251-debris",
        "lat": 63.2777160760091,
        "lon": -112.61270835043793,
        "alt_km": 698.24161886828,
        "timestamp": "2025-12-19T20:43:00.480495+00:00",
        "meta_object_name": "COSMOS 2251 DEB",
        "meta_object_id": "1993-036VJ",
        "meta_epoch": "2025-12-17T08:51:26.669952",
        "meta_mean_motion": 14.50108121,
        "meta_eccentricity": 0.00622699,
        "meta_inclination": 74.0105,
        "meta_ra_of_asc_node": 106.7968,
        "meta_arg_of_pericenter": 179.7942,
        "meta_mean_anomaly": 237.2131,
        "meta_ephemeris_type": 0,
        "meta_classification_type": "U",
        "meta_norad_cat_id": 34572,
        "meta_element_set_no": 999,
        "meta_rev_at_epoch": 87445,
        "meta_bstar": 0.0020762256,
        "meta_mean_motion_dot": 8.243e-05,
        "meta_mean_motion_ddot": 0,
        "tle_line1": "1 34572U 93036VJ  25351.36905868  .00008243  00000+0  20762-2 0  9998",
        "tle_line2": "2 34572  74.0105 106.7968 0062269 179.7942 237.2131 14.50108121874451"
      },
      "geometry": {
        "type": "Point",
        "coordinates": [
          -112.61270835043793,
          63.2777160760091
        ]
      }
    },
    {
      "type": "Feature",
      "properties": {
        "norad_id": 34574,
        "name": "COSMOS 2251 DEB",
        "group": "cosmos-2251-debris",
        "lat": 12.498194369277636,
        "lon": -154.2955437091016,
        "alt_km": 682.2421292985446,
        "timestamp": "2025-12-19T20:43:00.480505+00:00",
        "meta_object_name": "COSMOS 2251 DEB",
        "meta_object_id": "1993-036VL",
        "meta_epoch": "2025-12-19T03:53:34.047168",
        "meta_mean_motion": 14.70670537,
        "meta_eccentricity": 0.00670673,
        "meta_inclination": 74.0688,
        "meta_ra_of_asc_node": 30.6919,
        "meta_arg_of_pericenter": 49.6994,
        "meta_mean_anomaly": 6.6582,
        "meta_ephemeris_type": 0,
        "meta_classification_type": "U",
        "meta_norad_cat_id": 34574,
        "meta_element_set_no": 999,
        "meta_rev_at_epoch": 88873,
        "meta_bstar": 0.00065499234,
        "meta_mean_motion_dot": 4.099e-05,
        "meta_mean_motion_ddot": 0,
        "tle_line1": "1 34574U 93036VL  25353.16219962  .00004099  00000+0  65499-3 0  9995",
        "tle_line2": "2 34574  74.0688  30.6919 0067067  49.6994   6.6582 14.70670537888734"
      },
      "geometry": {
        "type": "Point",
        "coordinates": [
          -154.2955437091016,
          12.498194369277636
        ]
      }
    },
    {
      "type": "Feature",
      "properties": {
        "norad_id": 34576,
        "name": "COSMOS 2251 DEB",
        "group": "cosmos-2251-debris",
        "lat": 67.14787946135709,
        "lon": -98.08957788043855,
        "alt_km": 706.2150239343482,
        "timestamp": "2025-12-19T20:43:00.480516+00:00",
        "meta_object_name": "COSMOS 2251 DEB",
        "meta_object_id": "1993-036VN",
        "meta_epoch": "2025-12-18T20:11:07.329984",
        "meta_mean_motion": 14.55466,
        "meta_eccentricity": 0.00082163,
        "meta_inclination": 74.034,
        "meta_ra_of_asc_node": 126.6375,
        "meta_arg_of_pericenter": 263.7064,
        "meta_mean_anomaly": 249.3441,
        "meta_ephemeris_type": 0,
        "meta_classification_type": "U",
        "meta_norad_cat_id": 34576,
        "meta_element_set_no": 999,
        "meta_rev_at_epoch": 88555,
        "meta_bstar": 0.00064112979,
        "meta_mean_motion_dot": 2.762e-05,
        "meta_mean_motion_ddot": 0,
        "tle_line1": "1 34576U 93036VN  25352.84105706  .00002762  00000+0  64113-3 0  9998",
        "tle_line2": "2 34576  74.0340 126.6375 0008216 263.7064 249.3441 14.55466000885559"
      },
      "geometry": {
        "type": "Point",
        "coordinates": [
          -98.08957788043855,
          67.14787946135709
        ]
      }
    },
    {
      "type": "Feature",
      "properties": {
        "norad_id": 34579,
        "name": "COSMOS 2251 DEB",
        "group": "cosmos-2251-debris",
        "lat": 60.79484856830617,
        "lon": -118.60180519282089,
        "alt_km": 751.1403382510334,
        "timestamp": "2025-12-19T20:43:00.480526+00:00",
        "meta_object_name": "COSMOS 2251 DEB",
        "meta_object_id": "1993-036VR",
        "meta_epoch": "2025-12-19T07:40:08.255136",
        "meta_mean_motion": 14.45325476,
        "meta_eccentricity": 0.00275383,
        "meta_inclination": 74.0518,
        "meta_ra_of_asc_node": 211.6432,
        "meta_arg_of_pericenter": 279.3076,
        "meta_mean_anomaly": 198.168,
        "meta_ephemeris_type": 0,
        "meta_classification_type": "U",
        "meta_norad_cat_id": 34579,
        "meta_element_set_no": 999,
        "meta_rev_at_epoch": 88269,
        "meta_bstar": 0.00027802021,
        "meta_mean_motion_dot": 9.54e-06,
        "meta_mean_motion_ddot": 0,
        "tle_line1": "1 34579U 93036VR  25353.31953999  .00000954  00000+0  27802-3 0  9994",
        "tle_line2": "2 34579  74.0518 211.6432 0027538 279.3076 198.1680 14.45325476882690"
      },
      "geometry": {
        "type": "Point",
        "coordinates": [
          -118.60180519282089,
          60.79484856830617
        ]
      }
    },
    {
      "type": "Feature",
      "properties": {
        "norad_id": 34582,
        "name": "COSMOS 2251 DEB",
        "group": "cosmos-2251-debris",
        "lat": -45.439409560772425,
        "lon": -117.78696428694093,
        "alt_km": 734.1961168339385,
        "timestamp": "2025-12-19T20:43:00.480536+00:00",
        "meta_object_name": "COSMOS 2251 DEB",
        "meta_object_id": "1993-036VU",
        "meta_epoch": "2025-12-19T04:18:05.961024",
        "meta_mean_motion": 14.43357051,
        "meta_eccentricity": 0.00482225,
        "meta_inclination": 74.0201,
        "meta_ra_of_asc_node": 260.4012,
        "meta_arg_of_pericenter": 9.1253,
        "meta_mean_anomaly": 351.0768,
        "meta_ephemeris_type": 0,
        "meta_classification_type": "U",
        "meta_norad_cat_id": 34582,
        "meta_element_set_no": 999,
        "meta_rev_at_epoch": 88040,
        "meta_bstar": 0.00057137156,
        "meta_mean_motion_dot": 1.928e-05,
        "meta_mean_motion_ddot": 0,
        "tle_line1": "1 34582U 93036VU  25353.17923566  .00001928  00000+0  57137-3 0  9995",
        "tle_line2": "2 34582  74.0201 260.4012 0048222   9.1253 351.0768 14.43357051880404"
      },
      "geometry": {
        "type": "Point",
        "coordinates": [
          -117.78696428694093,
          -45.439409560772425
        ]
      }
    },
    {
      "type": "Feature",
      "properties": {
        "norad_id": 34588,
        "name": "COSMOS 2251 DEB",
        "group": "cosmos-2251-debris",
        "lat": -24.974702518449355,
        "lon": -112.6021063128222,
        "alt_km": 744.7585890959544,
        "timestamp": "2025-12-19T20:43:00.480547+00:00",
        "meta_object_name": "COSMOS 2251 DEB",
        "meta_object_id": "1993-036WA",
        "meta_epoch": "2025-12-19T04:54:50.443200",
        "meta_mean_motion": 14.42040162,
        "meta_eccentricity": 0.0019267,
        "meta_inclination": 74.043,
        "meta_ra_of_asc_node": 256.2759,
        "meta_arg_of_pericenter": 308.2893,
        "meta_mean_anomaly": 208.8114,
        "meta_ephemeris_type": 0,
        "meta_classification_type": "U",
        "meta_norad_cat_id": 34588,
        "meta_element_set_no": 999,
        "meta_rev_at_epoch": 88043,
        "meta_bstar": 0.00032757037,
        "meta_mean_motion_dot": 1.051e-05,
        "meta_mean_motion_ddot": 0,
        "tle_line1": "1 34588U 93036WA  25353.20475050  .00001051  00000+0  32757-3 0  9993",
        "tle_line2": "2 34588  74.0430 256.2759 0019267 308.2893 208.8114 14.42040162880433"
      },
      "geometry": {
        "type": "Point",
        "coordinates": [
          -112.6021063128222,
          -24.974702518449355
        ]
      }
    }
  ]
}